[{"OBJECT_NAME":"HYPERFIELD-1A","OBJECT_ID":"2024-149CY","EPOCH":"2026-03-09T18:21:25.814304","MEAN_MOTION":15.29681349,"ECCENTRICITY":0.00038648,"INCLINATION":97.3842,"RA_OF_ASC_NODE":149.5066,"ARG_OF_PERICENTER":313.7844,"MEAN_ANOMALY":46.3076,"EPHEMERIS_TYPE":0,"CLASSIFICATION_TYPE":"U","NORAD_CAT_ID":60562,"ELEMENT_SET_NO":999,"REV_AT_EPOCH":8683,"BSTAR":0.00030052114,"MEAN_MOTION_DOT":8.569e-5,"MEAN_MOTION_DDOT":0},{"OBJECT_NAME":"STARLINK-35943","OBJECT_ID":"2025-286C","EPOCH":"2026-03-09T22:26:15.278784","MEAN_MOTION":15.30211812,"ECCENTRICITY":0.00011859,"INCLINATION":53.1623,"RA_OF_ASC_NODE":357.3559,"ARG_OF_PERICENTER":104.879,"MEAN_ANOMALY":255.2342,"EPHEMERIS_TYPE":0,"CLASSIFICATION_TYPE":"U","NORAD_CAT_ID":66927,"ELEMENT_SET_NO":999,"REV_AT_EPOCH":1545,"BSTAR":0.00097628406,"MEAN_MOTION_DOT":0.00028678,"MEAN_MOTION_DDOT":0}]
